#aV2014 10 19  0  0  0.00000000     288 DD+AD WGS84 FIT  NGA
## 1815      0.00000000   300.00000000 56949 0.0000000000000
+   31     1  2  4  5  6  7  8  9 10 11 12 13 14 15 16 17 18
+         19 20 21 22 23 24 25 26 27 28 29 30 31 32  0  0  0
+          0  0  0  0  0  0  0  0  0  0  0  0  0  0  0  0  0
+          0  0  0  0  0  0  0  0  0  0  0  0  0  0  0  0  0
+          0  0  0  0  0  0  0  0  0  0  0  0  0  0  0  0  0
++         2  2  2  2  2  2  2  2  2  2  2  2  2  2  2  2  2
++         2  2  2  2  2  2  2  2  2  2  2  2  2  2  0  0  0
++         0  0  0  0  0  0  0  0  0  0  0  0  0  0  0  0  0
++         0  0  0  0  0  0  0  0  0  0  0  0  0  0  0  0  0
++         0  0  0  0  0  0  0  0  0  0  0  0  0  0  0  0  0
%c cc cc ccc ccc cccc cccc cccc cccc ccccc ccccc ccccc ccccc
%c cc cc ccc ccc cccc cccc cccc cccc ccccc ccccc ccccc ccccc
%f  0.0000000  0.000000000  0.00000000000  0.000000000000000
%f  0.0000000  0.000000000  0.00000000000  0.000000000000000
%i    0    0    0    0      0      0      0      0         0
%i    0    0    0    0      0      0      0      0         0
/*      NGA, ST. LOUIS,MO.                                  
/*   EPHEMERIS COMPUTED FROM  1 DAYS OF DATA                
/*   EPOCHA SMOOTHER                                       
/* CCCCCCCCCCCCCCCCCCCCCCCCCCCCCCCCCCCCCCCCCCCCCCCCCCCCCCCCC
*  2014 10 19  6 40  0.00000000
P  1 -18950.147894 -13381.619098 -13125.047237     22.653746                    
V  1  16605.766614   1348.798641 -25291.449765      0.004385                    
P  2  -5504.870615  14983.023797  21505.454557    525.022622                    
V  2 -26187.023618  -5239.141156  -3580.583300      0.022045                    
P  4 -17590.777088 -14186.411293 -14446.462330     -1.758492                    
V  4  17898.860470   1062.293558 -23117.741242     -0.004746                    
P  5    276.964494  24301.022806  10459.574372   -327.848860                    
V  5  -7130.143439 -11769.554163  27587.285865      0.041497                    
P  6 -19058.664015   8003.445295  16653.303748      0.918266                    
V  6 -20397.086639  -5999.159975 -20454.299332      0.031440                    
P  7 -25784.284851  -7012.606954   1489.058631    403.769521                    
V  7   2194.751683  -1696.507701  31694.340517      0.039611                    
P  8 -19563.528656 -14549.266715  11447.268403     15.976872                    
V  8  13531.019863   3622.170331  27607.821373      0.002470                    
P  9 -17612.184068  -1090.210929  19859.863663      8.416695                    
V  9  15810.194985 -19670.174728  12928.360909     -0.052929                    
P 10 -11949.485836  11322.765178  20400.145861   -146.209873                    
V 10  -9337.180402 -25242.439792   8817.152975     -0.015174                    
P 11 -12856.357587 -13970.049454 -19151.489006   -529.826622                    
V 11  23084.045498  -4766.180098 -12185.869893     -0.028922                    
P 12  10006.378699  24305.241866   4467.004431    239.920971                    
V 12    -79.464449   5972.940115 -31564.764768      0.026963                    
P 13 -21622.680353   7016.848539  13773.761503    -52.396557                    
V 13  11893.324631 -13105.118336  24905.777734     -0.035711                    
P 14  21395.738409 -13592.620469  -7439.173271    124.032210                    
V 14  -5236.599895   8668.497056 -30102.652483     -0.036383                    
P 15   4598.271462  17259.889045 -19629.439238   -209.475262                    
V 15 -17020.740642  18340.035105  12486.166060     -0.022260                    
P 16    832.513747 -24102.566014  10650.620739   -187.094543                    
V 16   5404.950514  12731.469290  28584.952891      0.026811                    
P 17 -21061.872077  13387.638941  -8477.121733   -131.713493                    
V 17   5938.166239  -9830.069653 -29577.955197     -0.025648                    
P 18  17183.554422   5880.876237 -19013.381589    352.342032                    
V 18   6751.817464  24300.962830  12981.330195      0.025325                    
P 19   1554.713389 -18937.827626 -18533.375567   -484.145750                    
V 19  18156.552674 -14751.341828  17185.300832     -0.017842                    
P 20 -15294.491165 -19751.678830   8929.055994    246.841158                    
V 20  -1149.292656 -12109.548697 -28063.993046      0.042688                    
P 21  26381.507854   2873.288172  -2990.797108   -390.153259                    
V 21   3827.326762   4176.168093  30550.095854     -0.020365                    
P 22  13399.717440  -9239.053522 -20755.244920    278.441437                    
V 22   9546.587683  25291.286460  -5206.948628      0.036967                    
P 23 -10827.856690 -11117.199939  21670.731246    -60.876991                    
V 23  18493.554658 -20038.984048  -1468.506049     -0.028310                    
P 24  15912.813767  14398.372086 -15738.275207    -37.054943                    
V 24 -19939.857010  -1820.382071 -21739.461511     -0.006207                    
P 25  15774.458400  15194.514218  15043.619214     17.852412                    
V 25   4548.171192  18673.000955 -23374.168827     -0.014125                    
P 26  -8763.360381  21065.510031 -14013.758694    -93.377756                    
V 26 -13608.721548  10001.589834  24986.379950     -0.128161                    
P 27  10354.288275 -22263.030588 -10055.212308     23.315116                    
V 27  10278.696060  -7950.916422  28299.459216      0.028938                    
P 28 -13939.314415   3356.809468 -21748.034891    392.282519                    
V 28  -7335.882097 -28094.543838    235.496790      0.027161                    
P 29  16494.742453   3323.547110  20566.709783    567.628332                    
V 29 -17659.068079  19153.824482  11117.522068      0.024357                    
P 30 -24777.892607    -74.321336  -9632.825434    -73.644946                    
V 30 -11035.332001  -5854.111266  28375.619912     -0.033478                    
P 31  17651.275504  -8454.408197  18254.428586    330.336554                    
V 31  21838.749521   6325.583266 -18032.995705     -0.005177                    
P 32  -4682.948380 -26349.441811  -2284.805645   -314.271863                    
V 32   3343.660498   2162.118715 -30934.172343      0.087712                    
EOF
